start=new Date('2023-03-08T00:00:00.000Z').valueOf();
sats=[{"SITE":"AFETR","INCLINATION":"53.2152","SEMIMAJOR_AXIS":"6917.826","DECAY_DATE":null,"REF_FRAME":"TEME","MEAN_ANOMALY":"264.8047","CLASSIFICATION_TYPE":"U","TLE_LINE2":"2 53556  53.2152 313.3900 0001740  95.3144 264.8047 15.08857812 30549","PERIAPSIS":"538.487","BSTAR":"0.00147340000000","COUNTRY_CODE":"US","RA_OF_ASC_NODE":"313.3900","OBJECT_TYPE":"PAYLOAD","EPOCH":"2023-03-07T15:44:59.618112","LAUNCH_DATE":"2022-08-19","MEAN_MOTION":"15.08857812","TIME_SYSTEM":"UTC","NORAD_CAT_ID":"53556","OBJECT_ID":"2022-101AF","PERIOD":"95.436","ECCENTRICITY":"0.00017400","TLE_LINE1":"1 53556U 22101AF  23066.65624558  .00023250  00000-0  14734-2 0  9991","OBJECT_NAME":"STARLINK-4505","EPHEMERIS_TYPE":"0","RCS_SIZE":"LARGE","MEAN_ELEMENT_THEORY":"SGP4","ARG_OF_PERICENTER":"95.3144","MEAN_MOTION_DOT":"0.00023250","ELEMENT_SET_NO":"999","GP_ID":"227676845","APOAPSIS":"540.895","FILE":"3854072","CENTER_NAME":"EARTH","MEAN_MOTION_DDOT":"0.0000000000000","REV_AT_EPOCH":"3054"},{"SITE":"AFETR","INCLINATION":"53.2133","SEMIMAJOR_AXIS":"6917.869","DECAY_DATE":null,"REF_FRAME":"TEME","CLASSIFICATION_TYPE":"U","MEAN_ANOMALY":"252.8682","TLE_LINE2":"2 53557  53.2133 312.1482 0000988 107.2418 252.8682 15.08843689 31237","BSTAR":"0.00063081000000","COUNTRY_CODE":"US","PERIAPSIS":"539.051","OBJECT_TYPE":"PAYLOAD","RA_OF_ASC_NODE":"312.1482","LAUNCH_DATE":"2022-08-19","EPOCH":"2023-03-07T22:22:25.766688","MEAN_MOTION":"15.08843689","TIME_SYSTEM":"UTC","NORAD_CAT_ID":"53557","OBJECT_ID":"2022-101AG","PERIOD":"95.437","TLE_LINE1":"1 53557U 22101AG  23066.93224267  .00009767  00000-0  63081-3 0  9993","OBJECT_NAME":"STARLINK-4502","ECCENTRICITY":"0.00009880","RCS_SIZE":"LARGE","EPHEMERIS_TYPE":"0","MEAN_ELEMENT_THEORY":"SGP4","ARG_OF_PERICENTER":"107.2418","MEAN_MOTION_DOT":"0.00009767","ELEMENT_SET_NO":"999","GP_ID":"227676863","FILE":"3854072","APOAPSIS":"540.418","CENTER_NAME":"EARTH","MEAN_MOTION_DDOT":"0.0000000000000","REV_AT_EPOCH":"3123"},{"REV_AT_EPOCH":"3131","MEAN_MOTION_DDOT":"0.0000000000000","CENTER_NAME":"EARTH","ELEMENT_SET_NO":"999","FILE":"3854072","APOAPSIS":"540.321","GP_ID":"227677112","MEAN_ELEMENT_THEORY":"SGP4","RCS_SIZE":"LARGE","EPHEMERIS_TYPE":"0","MEAN_MOTION_DOT":"-0.00000793","ARG_OF_PERICENTER":"94.3192","PERIOD":"95.437","OBJECT_ID":"2022-101AH","NORAD_CAT_ID":"53558","TLE_LINE1":"1 53558U 22101AH  23066.92346264 -.00000793  00000-0 -31746-4 0  9991","OBJECT_NAME":"STARLINK-4494","ECCENTRICITY":"0.00008640","EPOCH":"2023-03-07T22:09:47.172096","LAUNCH_DATE":"2022-08-19","OBJECT_TYPE":"PAYLOAD","RA_OF_ASC_NODE":"306.9078","MEAN_MOTION":"15.08847311","TIME_SYSTEM":"UTC","CLASSIFICATION_TYPE":"U","MEAN_ANOMALY":"265.7899","REF_FRAME":"TEME","COUNTRY_CODE":"US","BSTAR":"-0.00003174600000","PERIAPSIS":"539.125","TLE_LINE2":"2 53558  53.2165 306.9078 0000864  94.3192 265.7899 15.08847311 31311","DECAY_DATE":null,"SITE":"AFETR","SEMIMAJOR_AXIS":"6917.858","INCLINATION":"53.2165"},{"CLASSIFICATION_TYPE":"U","MEAN_ANOMALY":"274.3120","REF_FRAME":"TEME","COUNTRY_CODE":"US","BSTAR":"0.00109420000000","PERIAPSIS":"538.737","TLE_LINE2":"2 53559  53.2146 312.4805 0001455  85.8039 274.3120 15.08840749 30571","EPOCH":"2023-03-07T20:36:26.628192","LAUNCH_DATE":"2022-08-19","OBJECT_TYPE":"PAYLOAD","RA_OF_ASC_NODE":"312.4805","MEAN_MOTION":"15.08840749","TIME_SYSTEM":"UTC","SITE":"AFETR","SEMIMAJOR_AXIS":"6917.878","INCLINATION":"53.2146","DECAY_DATE":null,"ELEMENT_SET_NO":"999","APOAPSIS":"540.750","FILE":"3854072","GP_ID":"227677360","REV_AT_EPOCH":"3057","MEAN_MOTION_DDOT":"0.0000000000000","CENTER_NAME":"EARTH","OBJECT_ID":"2022-101AJ","PERIOD":"95.438","NORAD_CAT_ID":"53559","OBJECT_NAME":"STARLINK-4508","TLE_LINE1":"1 53559U 22101AJ  23066.85864153  .00017169  00000-0  10942-2 0  9992","ECCENTRICITY":"0.00014550","MEAN_ELEMENT_THEORY":"SGP4","RCS_SIZE":"LARGE","EPHEMERIS_TYPE":"0","MEAN_MOTION_DOT":"0.00017169","ARG_OF_PERICENTER":"85.8039"},{"DECAY_DATE":null,"SEMIMAJOR_AXIS":"6917.867","INCLINATION":"53.2185","SITE":"AFETR","MEAN_MOTION":"15.08844287","TIME_SYSTEM":"UTC","EPOCH":"2023-03-07T02:31:27.304896","LAUNCH_DATE":"2022-08-19","OBJECT_TYPE":"PAYLOAD","RA_OF_ASC_NODE":"306.0381","BSTAR":"0.00014567000000","COUNTRY_CODE":"US","PERIAPSIS":"538.945","TLE_LINE2":"2 53560  53.2185 306.0381 0001138  66.7718 293.3394 15.08844287 30591","CLASSIFICATION_TYPE":"U","MEAN_ANOMALY":"293.3394","REF_FRAME":"TEME","MEAN_MOTION_DOT":"0.00002032","ARG_OF_PERICENTER":"66.7718","MEAN_ELEMENT_THEORY":"SGP4","RCS_SIZE":"LARGE","EPHEMERIS_TYPE":"0","TLE_LINE1":"1 53560U 22101AK  23066.10517714  .00002032  00000-0  14567-3 0  9991","OBJECT_NAME":"STARLINK-4564","ECCENTRICITY":"0.00011380","PERIOD":"95.437","OBJECT_ID":"2022-101AK","NORAD_CAT_ID":"53560","REV_AT_EPOCH":"3059","MEAN_MOTION_DDOT":"0.0000000000000","CENTER_NAME":"EARTH","FILE":"3854072","APOAPSIS":"540.520","GP_ID":"227676346","ELEMENT_SET_NO":"999"},{"REV_AT_EPOCH":"3055","MEAN_MOTION_DDOT":"0.0000000000000","CENTER_NAME":"EARTH","FILE":"3854072","APOAPSIS":"540.268","GP_ID":"227676364","ELEMENT_SET_NO":"999","MEAN_MOTION_DOT":"0.00023145","ARG_OF_PERICENTER":"98.8028","MEAN_ELEMENT_THEORY":"SGP4","RCS_SIZE":"LARGE","EPHEMERIS_TYPE":"0","OBJECT_NAME":"STARLINK-4563","TLE_LINE1":"1 53561U 22101AL  23066.71975346  .00023145  00000-0  14673-2 0  9993","ECCENTRICITY":"0.00007790","PERIOD":"95.437","OBJECT_ID":"2022-101AL","NORAD_CAT_ID":"53561","TIME_SYSTEM":"UTC","MEAN_MOTION":"15.08845238","LAUNCH_DATE":"2022-08-19","EPOCH":"2023-03-07T17:16:26.698944","OBJECT_TYPE":"PAYLOAD","RA_OF_ASC_NODE":"313.1109","COUNTRY_CODE":"US","BSTAR":"0.00146730000000","PERIAPSIS":"539.190","TLE_LINE2":"2 53561  53.2161 313.1109 0000779  98.8028 261.3052 15.08845238 30552","CLASSIFICATION_TYPE":"U","MEAN_ANOMALY":"261.3052","REF_FRAME":"TEME","DECAY_DATE":null,"SEMIMAJOR_AXIS":"6917.864","INCLINATION":"53.2161","SITE":"AFETR"},{"DECAY_DATE":null,"INCLINATION":"53.2178","SEMIMAJOR_AXIS":"6918.258","SITE":"AFETR","TIME_SYSTEM":"UTC","MEAN_MOTION":"15.08716328","OBJECT_TYPE":"PAYLOAD","RA_OF_ASC_NODE":"306.0028","LAUNCH_DATE":"2022-08-19","EPOCH":"2023-03-07T02:22:07.441536","TLE_LINE2":"2 53562  53.2178 306.0028 0001137  86.7826 273.3296 15.08716328 31251","BSTAR":"0.00271530000000","COUNTRY_CODE":"US","PERIAPSIS":"539.337","REF_FRAME":"TEME","CLASSIFICATION_TYPE":"U","MEAN_ANOMALY":"273.3296","ARG_OF_PERICENTER":"86.7826","MEAN_MOTION_DOT":"0.00043044","RCS_SIZE":"LARGE","EPHEMERIS_TYPE":"0","MEAN_ELEMENT_THEORY":"SGP4","TLE_LINE1":"1 53562U 22101AM  23066.09869724  .00043044  00000-0  27153-2 0  9994","OBJECT_NAME":"STARLINK-4565","ECCENTRICITY":"0.00011370","NORAD_CAT_ID":"53562","OBJECT_ID":"2022-101AM","PERIOD":"95.445","CENTER_NAME":"EARTH","MEAN_MOTION_DDOT":"0.0000000000000","REV_AT_EPOCH":"3125","GP_ID":"227676613","FILE":"3854072","APOAPSIS":"540.910","ELEMENT_SET_NO":"999"},{"TLE_LINE2":"2 53563  53.2157 305.4727 0001850 174.5060 185.5953 15.08883602 30619","PERIAPSIS":"538.332","BSTAR":"0.00226270000000","COUNTRY_CODE":"US","REF_FRAME":"TEME","MEAN_ANOMALY":"185.5953","CLASSIFICATION_TYPE":"U","MEAN_MOTION":"15.08883602","TIME_SYSTEM":"UTC","RA_OF_ASC_NODE":"305.4727","OBJECT_TYPE":"PAYLOAD","LAUNCH_DATE":"2022-08-19","EPOCH":"2023-03-07T05:47:31.972992","INCLINATION":"53.2157","SEMIMAJOR_AXIS":"6917.747","SITE":"AFETR","DECAY_DATE":null,"GP_ID":"227677860","FILE":"3854072","APOAPSIS":"540.892","ELEMENT_SET_NO":"999","MEAN_MOTION_DDOT":"0.0000000000000","CENTER_NAME":"EARTH","REV_AT_EPOCH":"3061","ECCENTRICITY":"0.00018500","TLE_LINE1":"1 53563U 22101AN  23066.24134228  .00035950  00000-0  22627-2 0  9994","OBJECT_NAME":"STARLINK-4561","NORAD_CAT_ID":"53563","PERIOD":"95.435","OBJECT_ID":"2022-101AN","ARG_OF_PERICENTER":"174.5060","MEAN_MOTION_DOT":"0.00035950","EPHEMERIS_TYPE":"0","RCS_SIZE":"LARGE","MEAN_ELEMENT_THEORY":"SGP4"},{"EPHEMERIS_TYPE":"0","RCS_SIZE":"LARGE","MEAN_ELEMENT_THEORY":"SGP4","ARG_OF_PERICENTER":"96.4668","MEAN_MOTION_DOT":"-0.00001416","NORAD_CAT_ID":"53564","OBJECT_ID":"2022-101AP","PERIOD":"95.437","ECCENTRICITY":"0.00010620","TLE_LINE1":"1 53564U 22101AP  23066.75652885 -.00001416  00000-0 -70917-4 0  9994","OBJECT_NAME":"STARLINK-4577","CENTER_NAME":"EARTH","MEAN_MOTION_DDOT":"0.0000000000000","REV_AT_EPOCH":"3069","ELEMENT_SET_NO":"999","GP_ID":"227676846","FILE":"3854072","APOAPSIS":"540.462","DECAY_DATE":null,"SITE":"AFETR","INCLINATION":"53.2189","SEMIMAJOR_AXIS":"6917.862","RA_OF_ASC_NODE":"302.9982","OBJECT_TYPE":"PAYLOAD","LAUNCH_DATE":"2022-08-19","EPOCH":"2023-03-07T18:09:24.092640","MEAN_MOTION":"15.08845944","TIME_SYSTEM":"UTC","REF_FRAME":"TEME","MEAN_ANOMALY":"263.6445","CLASSIFICATION_TYPE":"U","TLE_LINE2":"2 53564  53.2189 302.9982 0001062  96.4668 263.6445 15.08845944 30690","PERIAPSIS":"538.993","BSTAR":"-0.00007091700000","COUNTRY_CODE":"US"},{"CENTER_NAME":"EARTH","MEAN_MOTION_DDOT":"0.0000000000000","REV_AT_EPOCH":"3128","ELEMENT_SET_NO":"999","GP_ID":"227676864","FILE":"3854072","APOAPSIS":"540.514","RCS_SIZE":"LARGE","EPHEMERIS_TYPE":"0","MEAN_ELEMENT_THEORY":"SGP4","ARG_OF_PERICENTER":"47.8036","MEAN_MOTION_DOT":"0.00008370","NORAD_CAT_ID":"53565","PERIOD":"95.439","OBJECT_ID":"2022-101AQ","TLE_LINE1":"1 53565U 22101AQ  23066.30022140  .00008370  00000-0  54363-3 0  9991","OBJECT_NAME":"STARLINK-4575","ECCENTRICITY":"0.00010270","OBJECT_TYPE":"PAYLOAD","RA_OF_ASC_NODE":"305.1295","LAUNCH_DATE":"2022-08-19","EPOCH":"2023-03-07T07:12:19.128960","TIME_SYSTEM":"UTC","MEAN_MOTION":"15.08820948","REF_FRAME":"TEME","CLASSIFICATION_TYPE":"U","MEAN_ANOMALY":"312.3044","TLE_LINE2":"2 53565  53.2161 305.1295 0001027  47.8036 312.3044 15.08820948 31283","COUNTRY_CODE":"US","BSTAR":"0.00054363000000","PERIAPSIS":"539.093","DECAY_DATE":null,"SITE":"AFETR","INCLINATION":"53.2161","SEMIMAJOR_AXIS":"6917.939"}];
